NORAD_CAT_ID,OBJECT_NAME,OBJECT_TYPE,EPOCH,MEAN_MOTION,ECCENTRICITY,INCLINATION,RA_OF_ASC_NODE,ARG_OF_PERICENTER,MEAN_ANOMALY,BSTAR,MEAN_MOTION_DOT,MEAN_MOTION_DDOT,TLE_LINE0,TLE_LINE1,TLE_LINE2,SEMIMAJOR_AXIS,PERIOD,APOGEE,PERIGEE,DECAYED
52368.0,STARLINK-3834,PAYLOAD,2023-12-14 22:49:02,15.08844254,0.0001633,53.2152,251.1186,83.1632,276.9545,-1.1833e-06,-3.07e-06,0.0,0 STARLINK-3834,1 52368U 22045AP  23348.95072305 -.00000307  00000-0 -11833-5 0  9991,2 52368  53.2152 251.1186 0001633  83.1632 276.9545 15.08844254 92767,6917.867,95.437,540.862,538.603,0.0
52368.0,STARLINK-3834,PAYLOAD,2023-12-15 22:39:50,15.08833104,0.0001468,53.2152,246.6572,93.03,267.086,-4.2735e-05,-9.68e-06,0.0,0 STARLINK-3834,1 52368U 22045AP  23349.94433023 -.00000968  00000-0 -42735-4 0  9996,2 52368  53.2152 246.6572 0001468  93.0300 267.0860 15.08833104 92913,6917.901,95.438,540.782,538.751,0.0
52368.0,STARLINK-3834,PAYLOAD,2023-12-16 00:15:13,15.08835264,0.0001476,53.2162,246.3591,95.209,264.907,-3.5266e-06,-3.44e-06,0.0,0 STARLINK-3834,1 52368U 22045AP  23350.01057137 -.00000344  00000-0 -35266-5 0  9994,2 52368  53.2162 246.3591 0001476  95.2090 264.9070 15.08835264 92920,6917.895,95.438,540.781,538.739,0.0
52368.0,STARLINK-3834,PAYLOAD,2023-12-16 22:30:36,15.08847308,0.0001345,53.2161,242.1895,84.2765,275.8381,0.00011197,1.495e-05,0.0,0 STARLINK-3834,1 52368U 22045AP  23350.93792233  .00001495  00000-0  11197-3 0  9999,2 52368  53.2161 242.1895 0001345  84.2765 275.8381 15.08847308 93066,6917.858,95.437,540.654,538.793,0.0
52368.0,STARLINK-3834,PAYLOAD,2023-12-17 00:05:59,15.08844706,0.000153,53.2157,241.9009,103.802,256.3143,0.00029006,4.332e-05,0.0,0 STARLINK-3834,1 52368U 22045AP  23351.00416487  .00004332  00000-0  29006-3 0  9993,2 52368  53.2157 241.9009 0001530 103.8020 256.3143 15.08844706 93073,6917.866,95.437,540.789,538.673,0.0
52368.0,STARLINK-3834,PAYLOAD,2023-12-17 22:21:23,15.08843531,0.0001654,53.2159,237.7347,104.7117,255.4059,0.00015083,2.113e-05,0.0,0 STARLINK-3834,1 52368U 22045AP  23351.93152512  .00002113  00000-0  15083-3 0  9996,2 52368  53.2159 237.7347 0001654 104.7117 255.4059 15.08843531 93214,6917.87,95.437,540.879,538.59,0.0
52368.0,STARLINK-3834,PAYLOAD,2023-12-17 23:56:46,15.08844477,0.000164,53.2163,237.4362,94.8557,265.2622,0.00016633,2.36e-05,0.0,0 STARLINK-3834,1 52368U 22045AP  23351.99776482  .00002360  00000-0  16633-3 0  9996,2 52368  53.2163 237.4362 0001640  94.8557 265.2622 15.08844477 93221,6917.867,95.437,540.866,538.597,0.0
52368.0,STARLINK-3834,PAYLOAD,2023-12-18 22:12:11,15.08839299,0.0001604,53.2158,233.2761,74.043,286.0738,-3.9521e-05,-9.17e-06,0.0,0 STARLINK-3834,1 52368U 22045AP  23352.92512868 -.00000917  00000-0 -39521-4 0  9996,2 52368  53.2158 233.2761 0001604  74.0430 286.0738 15.08839299 93362,6917.883,95.438,540.857,538.638,0.0
52368.0,STARLINK-3834,PAYLOAD,2023-12-18 23:47:34,15.08841351,0.0001634,53.2162,232.9788,82.9242,277.1936,5.1478e-06,-2.06e-06,0.0,0 STARLINK-3834,1 52368U 22045AP  23352.99136840 -.00000206  00000-0  51478-5 0  9991,2 52368  53.2162 232.9788 0001634  82.9242 277.1936 15.08841351 93378,6917.876,95.437,540.872,538.611,0.0
52368.0,STARLINK-3834,PAYLOAD,2023-12-19 20:27:35,15.08834382,0.0001503,53.215,229.1136,86.265,273.8514,-1.6009e-05,-5.43e-06,0.0,0 STARLINK-3834,1 52368U 22045AP  23353.85249403 -.00000543  00000-0 -16009-4 0  9992,2 52368  53.2150 229.1136 0001503  86.2650 273.8514 15.08834382 93501,6917.898,95.438,540.802,538.723,0.0
52368.0,STARLINK-3834,PAYLOAD,2023-12-19 23:38:21,15.08835582,0.0001797,53.2159,228.5177,68.5374,291.5809,3.6054e-05,2.86e-06,0.0,0 STARLINK-3834,1 52368U 22045AP  23353.98497576  .00000286  00000-0  36054-4 0  9996,2 52368  53.2159 228.5177 0001797  68.5374 291.5809 15.08835582 93528,6917.894,95.438,541.002,538.516,0.0
52368.0,STARLINK-3834,PAYLOAD,2023-12-20 20:18:23,15.08823036,0.0001392,53.2157,224.6508,85.2893,274.8258,0.0006344,9.818e-05,0.0,0 STARLINK-3834,1 52368U 22045AP  23354.84610391  .00009818  00000-0  63440-3 0  9992,2 52368  53.2157 224.6508 0001392  85.2893 274.8258 15.08823036 93651,6917.932,95.439,540.76,538.834,0.0
52368.0,STARLINK-3834,PAYLOAD,2023-12-20 21:53:46,15.08825619,0.0001488,53.2157,224.3533,78.6878,281.4281,0.00068225,0.00010582,0.0,0 STARLINK-3834,1 52368U 22045AP  23354.91234403  .00010582  00000-0  68225-3 0  9992,2 52368  53.2157 224.3533 0001488  78.6878 281.4281 15.08825619 93661,6917.924,95.438,540.819,538.76,0.0
52368.0,STARLINK-3834,PAYLOAD,2023-12-21 21:44:32,15.08844452,0.0001538,53.2153,219.8939,101.962,258.1545,0.0001158,1.556e-05,0.0,0 STARLINK-3834,1 52368U 22045AP  23355.90593401  .00001556  00000-0  11580-3 0  9991,2 52368  53.2153 219.8939 0001538 101.9620 258.1545 15.08844452 93814,6917.867,95.437,540.796,538.668,0.0
52368.0,STARLINK-3834,PAYLOAD,2023-12-22 19:59:56,15.08841747,0.0001587,53.2153,215.7273,103.1413,256.9756,5.7288e-05,6.24e-06,0.0,0 STARLINK-3834,1 52368U 22045AP  23356.83329484  .00000624  00000-0  57288-4 0  9993,2 52368  53.2153 215.7273 0001587 103.1413 256.9756 15.08841747 93957,6917.875,95.437,540.838,538.642,0.0
52368.0,STARLINK-3834,PAYLOAD,2023-12-22 21:35:19,15.08841138,0.0001538,53.2152,215.4299,98.8975,261.2192,3.951e-05,3.41e-06,0.0,0 STARLINK-3834,1 52368U 22045AP  23356.89953494  .00000341  00000-0  39510-4 0  9997,2 52368  53.2152 215.4299 0001538  98.8975 261.2192 15.08841138 93968,6917.877,95.437,540.806,538.678,0.0
52368.0,STARLINK-3834,PAYLOAD,2023-12-23 15:04:34,15.08836514,0.000162,53.2166,212.1626,107.0116,253.1054,4.6441e-05,4.51e-06,0.0,0 STARLINK-3834,1 52368U 22045AP  23357.62817930  .00000451  00000-0  46441-4 0  9996,2 52368  53.2166 212.1626 0001620 107.0116 253.1054 15.08836514 94075,6917.891,95.438,540.877,538.635,0.0
52368.0,STARLINK-3834,PAYLOAD,2023-12-23 21:26:07,15.08841207,0.0001412,53.2154,210.972,100.9215,259.1936,4.543e-05,4.35e-06,0.0,0 STARLINK-3834,1 52368U 22045AP  23357.89313662  .00000435  00000-0  45430-4 0  9997,2 52368  53.2154 210.9720 0001412 100.9215 259.1936 15.08841207 94119,6917.877,95.437,540.719,538.765,0.0
52368.0,STARLINK-3834,PAYLOAD,2023-12-24 13:19:58,15.08842365,0.0001442,53.2147,207.9987,101.6729,258.4425,-2.5452e-06,-3.28e-06,0.0,0 STARLINK-3834,1 52368U 22045AP  23358.55553934 -.00000328  00000-0 -25452-5 0  9995,2 52368  53.2147 207.9987 0001442 101.6729 258.4425 15.08842365 94215,6917.873,95.437,540.736,538.741,0.0
52368.0,STARLINK-3834,PAYLOAD,2023-12-24 19:41:31,15.08840522,0.0001385,53.2148,206.8094,102.7634,257.3513,4.6765e-05,4.56e-06,0.0,0 STARLINK-3834,1 52368U 22045AP  23358.82049840  .00000456  00000-0  46765-4 0  9990,2 52368  53.2148 206.8094 0001385 102.7634 257.3513 15.08840522 94259,6917.879,95.438,540.702,538.786,0.0
52368.0,STARLINK-3834,PAYLOAD,2023-12-25 19:32:18,15.08839876,0.0001309,53.2149,202.3493,97.2853,262.8288,6.6036e-05,7.63e-06,0.0,0 STARLINK-3834,1 52368U 22045AP  23359.81409986  .00000763  00000-0  66036-4 0  9995,2 52368  53.2149 202.3493 0001309  97.2853 262.8288 15.08839876 94408,6917.881,95.438,540.651,538.84,0.0
52368.0,STARLINK-3834,PAYLOAD,2023-12-25 21:07:41,15.08841599,0.0001299,53.215,202.0521,94.1829,265.9311,7.8161e-05,9.56e-06,0.0,0 STARLINK-3834,1 52368U 22045AP  23359.88033842  .00000956  00000-0  78161-4 0  9992,2 52368  53.2150 202.0521 0001299  94.1829 265.9311 15.08841599 94413,6917.876,95.437,540.639,538.842,0.0
52368.0,STARLINK-3834,PAYLOAD,2023-12-26 13:01:32,15.08837998,0.0001319,53.215,199.0783,100.1338,259.9803,5.4544e-05,5.8e-06,0.0,0 STARLINK-3834,1 52368U 22045AP  23360.54274157  .00000580  00000-0  54544-4 0  9995,2 52368  53.2150 199.0783 0001319 100.1338 259.9803 15.08837998 94512,6917.887,95.438,540.664,538.839,0.0
52368.0,STARLINK-3834,PAYLOAD,2023-12-26 20:58:28,15.08839892,0.000131,53.2149,197.5916,98.1052,262.0088,6.3235e-05,7.19e-06,0.0,0 STARLINK-3834,1 52368U 22045AP  23360.87393992  .00000719  00000-0  63235-4 0  9991,2 52368  53.2149 197.5916 0001310  98.1052 262.0088 15.08839892 94561,6917.881,95.438,540.652,538.839,0.0
52368.0,STARLINK-3834,PAYLOAD,2023-12-27 22:24:38,15.08844686,0.0001327,53.2149,192.8334,96.061,264.0533,5.7953e-05,6.35e-06,0.0,0 STARLINK-3834,1 52368U 22045AP  23361.93377635  .00000635  00000-0  57953-4 0  9992,2 52368  53.2149 192.8334 0001327  96.0610 264.0533 15.08844686 94720,6917.866,95.437,540.649,538.813,0.0
52368.0,STARLINK-3834,PAYLOAD,2023-12-28 12:43:06,15.08840095,0.0001353,53.2149,190.1568,89.8104,270.3044,3.5916e-05,2.84e-06,0.0,0 STARLINK-3834,1 52368U 22045AP  23362.52993999  .00000284  00000-0  35916-4 0  9990,2 52368  53.2149 190.1568 0001353  89.8104 270.3044 15.08840095 94814,6917.88,95.438,540.681,538.809,0.0
52368.0,STARLINK-3834,PAYLOAD,2023-12-28 19:04:39,15.08839575,0.0001341,53.215,188.9673,89.6246,270.4899,2.506e-05,1.11e-06,0.0,0 STARLINK-3834,1 52368U 22045AP  23362.79490034  .00000111  00000-0  25060-4 0  9999,2 52368  53.2150 188.9673 0001341  89.6246 270.4899 15.08839575 94854,6917.882,95.438,540.674,538.819,0.0
52368.0,STARLINK-3834,PAYLOAD,2023-12-29 12:33:53,15.08841602,0.0001335,53.2152,185.6948,97.6657,262.4487,3.4556e-05,2.62e-06,0.0,0 STARLINK-3834,1 52368U 22045AP  23363.52353755  .00000262  00000-0  34556-4 0  9996,2 52368  53.2152 185.6948 0001335  97.6657 262.4487 15.08841602 94963,6917.875,95.437,540.664,538.817,0.0
52368.0,STARLINK-3834,PAYLOAD,2023-12-29 18:55:26,15.08843633,0.0001343,53.2155,184.5055,93.6758,266.4387,4.5483e-05,4.36e-06,0.0,0 STARLINK-3834,1 52368U 22045AP  23363.78849558  .00000436  00000-0  45483-4 0  9999,2 52368  53.2155 184.5055 0001343  93.6758 266.4387 15.08843633 95005,6917.869,95.437,540.663,538.805,0.0
52368.0,STARLINK-3834,PAYLOAD,2023-12-30 12:24:40,15.08839471,0.0001353,53.2158,181.2357,78.1659,281.9485,3.745e-05,3.08e-06,0.0,0 STARLINK-3834,1 52368U 22045AP  23364.51713887  .00000308  00000-0  37450-4 0  9999,2 52368  53.2158 181.2357 0001353  78.1659 281.9485 15.08839471 95114,6917.882,95.438,540.683,538.811,0.0
